{"type": "FeatureCollection", "features": [{"type": "Feature", "properties": {"norad_id": 24876, "name": "GPS BIIR-2  (PRN 13)", "group": "gps-ops", "lat": 33.00108160039247, "lon": -99.8462802963016, "alt_km": 20139.454793364886, "timestamp": "2025-12-02T10:50:47.532517+00:00", "meta": {"OBJECT_NAME": "GPS BIIR-2  (PRN 13)", "OBJECT_ID": "1997-035A", "EPOCH": "2025-12-01T18:20:01.305600", "MEAN_MOTION": 2.00563436, "ECCENTRICITY": 0.0096658, "INCLINATION": 55.8898, "RA_OF_ASC_NODE": 106.2982, "ARG_OF_PERICENTER": 57.0223, "MEAN_ANOMALY": 303.8787, "EPHEMERIS_TYPE": 0, "CLASSIFICATION_TYPE": "U", "NORAD_CAT_ID": 24876, "ELEMENT_SET_NO": 999, "REV_AT_EPOCH": 20799, "BSTAR": 0, "MEAN_MOTION_DOT": 3.5e-07, "MEAN_MOTION_DDOT": 0}, "tle": {"line1": "1 24876U 97035A   25335.76390400  .00000035  00000+0  00000+0 0  9994", "line2": "2 24876  55.8898 106.2982 0096658  57.0223 303.8787  2.00563436207995"}}, "geometry": {"type": "Point", "coordinates": [-99.8462802963016, 33.00108160039247]}}, {"type": "Feature", "properties": {"norad_id": 26360, "name": "GPS BIIR-4  (PRN 20)", "group": "gps-ops", "lat": -38.47043799674683, "lon": -118.9876158716063, "alt_km": 20085.302600731953, "timestamp": "2025-12-02T10:50:47.532553+00:00", "meta": {"OBJECT_NAME": "GPS BIIR-4  (PRN 20)", "OBJECT_ID": "2000-025A", "EPOCH": "2025-12-02T03:30:27.357408", "MEAN_MOTION": 2.00568432, "ECCENTRICITY": 0.0038771, "INCLINATION": 55.0389, "RA_OF_ASC_NODE": 27.2666, "ARG_OF_PERICENTER": 240.9431, "MEAN_ANOMALY": 127.7379, "EPHEMERIS_TYPE": 0, "CLASSIFICATION_TYPE": "U", "NORAD_CAT_ID": 26360, "ELEMENT_SET_NO": 999, "REV_AT_EPOCH": 18732, "BSTAR": 0, "MEAN_MOTION_DOT": -6.9e-07, "MEAN_MOTION_DDOT": 0}, "tle": {"line1": "1 26360U 00025A   25336.14614997 -.00000069  00000+0  00000+0 0  9998", "line2": "2 26360  55.0389  27.2666 0038771 240.9431 127.7379  2.00568432187324"}}, "geometry": {"type": "Point", "coordinates": [-118.9876158716063, -38.47043799674683]}}, {"type": "Feature", "properties": {"norad_id": 26407, "name": "GPS BIIR-5  (PRN 22)", "group": "gps-ops", "lat": 50.312161618062085, "lon": -79.17516932174622, "alt_km": 20382.08699406331, "timestamp": "2025-12-02T10:50:47.532570+00:00", "meta": {"OBJECT_NAME": "GPS BIIR-5  (PRN 22)", "OBJECT_ID": "2000-040A", "EPOCH": "2025-12-02T02:20:38.477184", "MEAN_MOTION": 2.00567697, "ECCENTRICITY": 0.0126598, "INCLINATION": 54.8935, "RA_OF_ASC_NODE": 222.9923, "ARG_OF_PERICENTER": 301.6113, "MEAN_ANOMALY": 231.635, "EPHEMERIS_TYPE": 0, "CLASSIFICATION_TYPE": "U", "NORAD_CAT_ID": 26407, "ELEMENT_SET_NO": 999, "REV_AT_EPOCH": 18599, "BSTAR": 0, "MEAN_MOTION_DOT": 5.3e-07, "MEAN_MOTION_DDOT": 0}, "tle": {"line1": "1 26407U 00040A   25336.09766756  .00000053  00000+0  00000+0 0  9994", "line2": "2 26407  54.8935 222.9923 0126598 301.6113 231.6350  2.00567697185994"}}, "geometry": {"type": "Point", "coordinates": [-79.17516932174622, 50.312161618062085]}}, {"type": "Feature", "properties": {"norad_id": 27663, "name": "GPS BIIR-8  (PRN 16)", "group": "gps-ops", "lat": -20.66102409847743, "lon": 58.134092991494484, "alt_km": 20533.975501358233, "timestamp": "2025-12-02T10:50:47.532585+00:00", "meta": {"OBJECT_NAME": "GPS BIIR-8  (PRN 16)", "OBJECT_ID": "2003-005A", "EPOCH": "2025-12-01T07:27:05.783040", "MEAN_MOTION": 2.00571429, "ECCENTRICITY": 0.0146985, "INCLINATION": 54.9264, "RA_OF_ASC_NODE": 222.833, "ARG_OF_PERICENTER": 51.6397, "MEAN_ANOMALY": 48.9538, "EPHEMERIS_TYPE": 0, "CLASSIFICATION_TYPE": "U", "NORAD_CAT_ID": 27663, "ELEMENT_SET_NO": 999, "REV_AT_EPOCH": 16734, "BSTAR": 0, "MEAN_MOTION_DOT": 4.8e-07, "MEAN_MOTION_DDOT": 0}, "tle": {"line1": "1 27663U 03005A   25335.31048360  .00000048  00000+0  00000+0 0  9995", "line2": "2 27663  54.9264 222.8330 0146985  51.6397  48.9538  2.00571429167348"}}, "geometry": {"type": "Point", "coordinates": [58.134092991494484, -20.66102409847743]}}, {"type": "Feature", "properties": {"norad_id": 28190, "name": "GPS BIIR-11 (PRN 19)", "group": "gps-ops", "lat": 2.9581963638667483, "lon": -74.3154530359287, "alt_km": 20457.934158090455, "timestamp": "2025-12-02T10:50:47.532599+00:00", "meta": {"OBJECT_NAME": "GPS BIIR-11 (PRN 19)", "OBJECT_ID": "2004-009A", "EPOCH": "2025-11-26T05:14:39.537024", "MEAN_MOTION": 2.00561394, "ECCENTRICITY": 0.01080929, "INCLINATION": 55.0011, "RA_OF_ASC_NODE": 283.885, "ARG_OF_PERICENTER": 167.3745, "MEAN_ANOMALY": 15.773, "EPHEMERIS_TYPE": 0, "CLASSIFICATION_TYPE": "U", "NORAD_CAT_ID": 28190, "ELEMENT_SET_NO": 999, "REV_AT_EPOCH": 15887, "BSTAR": 0, "MEAN_MOTION_DOT": -2.4e-07, "MEAN_MOTION_DDOT": 0}, "tle": {"line1": "1 28190U 04009A   25330.21851316 -.00000024  00000+0  00000+0 0  9998", "line2": "2 28190  55.0011 283.8850 0108092 167.3745  15.7730  2.00561394158873"}}, "geometry": {"type": "Point", "coordinates": [-74.3154530359287, 2.9581963638667483]}}, {"type": "Feature", "properties": {"norad_id": 28474, "name": "GPS BIIR-13 (PRN 02)", "group": "gps-ops", "lat": 48.38180231676988, "lon": 24.21802791023585, "alt_km": 20374.576846331907, "timestamp": "2025-12-02T10:50:47.532612+00:00", "meta": {"OBJECT_NAME": "GPS BIIR-13 (PRN 02)", "OBJECT_ID": "2004-045A", "EPOCH": "2025-12-01T10:47:33.520992", "MEAN_MOTION": 2.00568829, "ECCENTRICITY": 0.0170514, "INCLINATION": 55.2462, "RA_OF_ASC_NODE": 332.8602, "ARG_OF_PERICENTER": 308.7614, "MEAN_ANOMALY": 111.3218, "EPHEMERIS_TYPE": 0, "CLASSIFICATION_TYPE": "U", "NORAD_CAT_ID": 28474, "ELEMENT_SET_NO": 999, "REV_AT_EPOCH": 15446, "BSTAR": 0, "MEAN_MOTION_DOT": -5.6e-07, "MEAN_MOTION_DDOT": 0}, "tle": {"line1": "1 28474U 04045A   25335.44969353 -.00000056  00000+0  00000+0 0  9999", "line2": "2 28474  55.2462 332.8602 0170514 308.7614 111.3218  2.00568829154469"}}, "geometry": {"type": "Point", "coordinates": [24.21802791023585, 48.38180231676988]}}, {"type": "Feature", "properties": {"norad_id": 28874, "name": "GPS BIIRM-1 (PRN 17)", "group": "gps-ops", "lat": 19.49270597767427, "lon": -64.5850472034811, "alt_km": 20180.177174038956, "timestamp": "2025-12-02T10:50:47.532624+00:00", "meta": {"OBJECT_NAME": "GPS BIIRM-1 (PRN 17)", "OBJECT_ID": "2005-038A", "EPOCH": "2025-11-30T16:16:45.058656", "MEAN_MOTION": 2.00548966, "ECCENTRICITY": 0.01328775, "INCLINATION": 55.0429, "RA_OF_ASC_NODE": 281.1867, "ARG_OF_PERICENTER": 293.3584, "MEAN_ANOMALY": 248.5646, "EPHEMERIS_TYPE": 0, "CLASSIFICATION_TYPE": "U", "NORAD_CAT_ID": 28874, "ELEMENT_SET_NO": 999, "REV_AT_EPOCH": 14785, "BSTAR": 0, "MEAN_MOTION_DOT": -4.1e-07, "MEAN_MOTION_DDOT": 0}, "tle": {"line1": "1 28874U 05038A   25334.67829929 -.00000041  00000+0  00000+0 0  9998", "line2": "2 28874  55.0429 281.1867 0132877 293.3584 248.5646  2.00548966147851"}}, "geometry": {"type": "Point", "coordinates": [-64.5850472034811, 19.49270597767427]}}, {"type": "Feature", "properties": {"norad_id": 29486, "name": "GPS BIIRM-2 (PRN 31)", "group": "gps-ops", "lat": -51.90373485267788, "lon": 94.40353466426376, "alt_km": 20356.379759078856, "timestamp": "2025-12-02T10:50:47.532636+00:00", "meta": {"OBJECT_NAME": "GPS BIIRM-2 (PRN 31)", "OBJECT_ID": "2006-042A", "EPOCH": "2025-12-01T13:45:36.640800", "MEAN_MOTION": 2.00554492, "ECCENTRICITY": 0.01073693, "INCLINATION": 54.6925, "RA_OF_ASC_NODE": 159.184, "ARG_OF_PERICENTER": 51.6942, "MEAN_ANOMALY": 320.2253, "EPHEMERIS_TYPE": 0, "CLASSIFICATION_TYPE": "U", "NORAD_CAT_ID": 29486, "ELEMENT_SET_NO": 999, "REV_AT_EPOCH": 14043, "BSTAR": 0, "MEAN_MOTION_DOT": 1.26e-06, "MEAN_MOTION_DDOT": 0}, "tle": {"line1": "1 29486U 06042A   25335.57334075  .00000126  00000+0  00000+0 0  9990", "line2": "2 29486  54.6925 159.1840 0107369  51.6942 320.2253  2.00554492140433"}}, "geometry": {"type": "Point", "coordinates": [94.40353466426376, -51.90373485267788]}}, {"type": "Feature", "properties": {"norad_id": 29601, "name": "GPS BIIRM-3 (PRN 12)", "group": "gps-ops", "lat": -14.496989462226972, "lon": -148.62551109873482, "alt_km": 20242.066525128, "timestamp": "2025-12-02T10:50:47.532648+00:00", "meta": {"OBJECT_NAME": "GPS BIIRM-3 (PRN 12)", "OBJECT_ID": "2006-052A", "EPOCH": "2025-11-30T23:32:34.416960", "MEAN_MOTION": 2.00572625, "ECCENTRICITY": 0.0087464, "INCLINATION": 54.9732, "RA_OF_ASC_NODE": 221.865, "ARG_OF_PERICENTER": 87.3176, "MEAN_ANOMALY": 273.7605, "EPHEMERIS_TYPE": 0, "CLASSIFICATION_TYPE": "U", "NORAD_CAT_ID": 29601, "ELEMENT_SET_NO": 999, "REV_AT_EPOCH": 13943, "BSTAR": 0, "MEAN_MOTION_DOT": 4.7e-07, "MEAN_MOTION_DDOT": 0}, "tle": {"line1": "1 29601U 06052A   25334.98095390  .00000047  00000+0  00000+0 0  9990", "line2": "2 29601  54.9732 221.8650 0087464  87.3176 273.7605  2.00572625139434"}}, "geometry": {"type": "Point", "coordinates": [-148.62551109873482, -14.496989462226972]}}, {"type": "Feature", "properties": {"norad_id": 32260, "name": "GPS BIIRM-4 (PRN 15)", "group": "gps-ops", "lat": 41.62067946743522, "lon": -132.11014251081352, "alt_km": 19838.322590335374, "timestamp": "2025-12-02T10:50:47.532660+00:00", "meta": {"OBJECT_NAME": "GPS BIIRM-4 (PRN 15)", "OBJECT_ID": "2007-047A", "EPOCH": "2025-12-01T06:52:15.674592", "MEAN_MOTION": 2.00564902, "ECCENTRICITY": 0.0164402, "INCLINATION": 53.9473, "RA_OF_ASC_NODE": 88.2317, "ARG_OF_PERICENTER": 85.1099, "MEAN_ANOMALY": 276.7472, "EPHEMERIS_TYPE": 0, "CLASSIFICATION_TYPE": "U", "NORAD_CAT_ID": 32260, "ELEMENT_SET_NO": 999, "REV_AT_EPOCH": 13284, "BSTAR": 0, "MEAN_MOTION_DOT": -3e-08, "MEAN_MOTION_DDOT": 0}, "tle": {"line1": "1 32260U 07047A   25335.28629253 -.00000003  00000+0  00000+0 0  9998", "line2": "2 32260  53.9473  88.2317 0164402  85.1099 276.7472  2.00564902132845"}}, "geometry": {"type": "Point", "coordinates": [-132.11014251081352, 41.62067946743522]}}]}